NORAD_CAT_ID,OBJECT_NAME,OBJECT_TYPE,EPOCH,MEAN_MOTION,ECCENTRICITY,INCLINATION,RA_OF_ASC_NODE,ARG_OF_PERICENTER,MEAN_ANOMALY,BSTAR,MEAN_MOTION_DOT,MEAN_MOTION_DDOT,TLE_LINE0,TLE_LINE1,TLE_LINE2,SEMIMAJOR_AXIS,PERIOD,APOGEE,PERIGEE,DECAYED
56494.0,STARLINK-5530,PAYLOAD,2024-04-13 07:42:39,14.98345911,0.000287,70.001,57.704,264.6307,95.4524,0.00023073,2.662e-05,0.0,0 STARLINK-5530,1 56494U 23064AY  24104.32128880  .00002662  00000-0  23073-3 0  9990,2 56494  70.0010  57.7040 0002870 264.6307  95.4524 14.98345911 52074,6950.144,96.106,574.003,570.014,0.0
56494.0,STARLINK-5530,PAYLOAD,2024-04-14 04:32:25,14.98319742,0.0002459,70.0026,55.5181,252.0274,108.0617,0.00032811,3.823e-05,0.0,0 STARLINK-5530,1 56494U 23064AY  24105.18918315  .00003823  00000-0  32811-3 0  9995,2 56494  70.0026  55.5181 0002459 252.0274 108.0617 14.98319742 52561,6950.225,96.108,573.799,570.381,0.0
56494.0,STARLINK-5530,PAYLOAD,2024-04-14 22:09:53,14.98342536,0.0002737,70.0012,53.6642,264.4187,95.666,-0.00015537,-1.947e-05,0.0,0 STARLINK-5530,1 56494U 23064AY  24105.92353730 -.00001947  00000-0 -15537-3 0  9994,2 56494  70.0012  53.6642 0002737 264.4187  95.6660 14.98342536 52315,6950.154,96.106,573.921,570.117,0.0
56494.0,STARLINK-5530,PAYLOAD,2024-04-15 04:34:25,14.98343007,0.0002662,70.0014,52.9901,264.9811,95.1045,-8.19e-05,-1.07e-05,0.0,0 STARLINK-5530,1 56494U 23064AY  24106.19057252 -.00001070  00000-0 -81900-4 0  9999,2 56494  70.0014  52.9901 0002662 264.9811  95.1045 14.98343007 52713,6950.153,96.106,573.868,570.168,0.0
56494.0,STARLINK-5530,PAYLOAD,2024-04-15 06:10:33,14.98345653,0.0002563,70.0017,52.8225,260.6912,99.3957,-8.3859e-05,-1.094e-05,0.0,0 STARLINK-5530,1 56494U 23064AY  24106.25733023 -.00001094  00000-0 -83859-4 0  9994,2 56494  70.0017  52.8225 0002563 260.6912  99.3957 14.98345653 52367,6950.144,96.106,573.791,570.228,0.0
56494.0,STARLINK-5530,PAYLOAD,2024-04-15 20:35:46,14.98332932,0.0002464,70.0023,51.3091,255.6735,104.4151,-4.6965e-06,-1.49e-06,0.0,0 STARLINK-5530,1 56494U 23064AY  24106.85817182 -.00000149  00000-0 -46965-5 0  9997,2 56494  70.0023  51.3091 0002464 255.6735 104.4151 14.98332932 52456,6950.184,96.107,573.761,570.336,0.0
56494.0,STARLINK-5530,PAYLOAD,2024-04-16 04:36:26,14.98331658,0.0002471,70.0023,50.4662,270.6436,89.444,-1.0014e-05,-2.12e-06,0.0,0 STARLINK-5530,1 56494U 23064AY  24107.19197185 -.00000212  00000-0 -10014-4 0  9995,2 56494  70.0023  50.4662 0002471 270.6436  89.4440 14.98331658 52865,6950.188,96.107,573.77,570.335,0.0
56494.0,STARLINK-5530,PAYLOAD,2024-04-16 06:12:34,14.98332789,0.0002353,70.0027,50.2985,268.0966,91.9923,2.4141e-05,1.95e-06,0.0,0 STARLINK-5530,1 56494U 23064AY  24107.25873069  .00000195  00000-0  24141-4 0  9998,2 56494  70.0027  50.2985 0002353 268.0966  91.9923 14.98332789 52515,6950.184,96.107,573.685,570.414,0.0
56494.0,STARLINK-5530,PAYLOAD,2024-04-16 20:37:46,14.9832799,0.0002576,70.0019,48.7828,266.498,93.5884,0.00018295,2.091e-05,0.0,0 STARLINK-5530,1 56494U 23064AY  24107.85956516  .00002091  00000-0  18295-3 0  9992,2 56494  70.0019  48.7828 0002576 266.4980  93.5884 14.98327990 52601,6950.199,96.107,573.854,570.274,0.0
56494.0,STARLINK-5530,PAYLOAD,2024-04-17 04:38:25,14.98344078,0.000259,70.0022,47.9441,261.6851,98.4014,0.00010053,1.107e-05,0.0,0 STARLINK-5530,1 56494U 23064AY  24108.19335622  .00001107  00000-0  10053-3 0  9990,2 56494  70.0022  47.9441 0002590 261.6851  98.4014 14.98344078 53018,6950.149,96.106,573.814,570.214,0.0
56494.0,STARLINK-5530,PAYLOAD,2024-04-17 06:14:33,14.98346097,0.0002567,70.0022,47.7758,260.4464,99.6405,0.00010129,1.116e-05,0.0,0 STARLINK-5530,1 56494U 23064AY  24108.26011427  .00001116  00000-0  10129-3 0  9996,2 56494  70.0022  47.7758 0002567 260.4464  99.6405 14.98346097 52668,6950.143,96.106,573.792,570.224,0.0
56494.0,STARLINK-5530,PAYLOAD,2024-04-17 20:39:48,14.98312999,0.0003136,70.0016,46.2583,268.2069,91.873,-0.0001826,-2.27e-05,0.0,0 STARLINK-5530,1 56494U 23064AY  24108.86098288 -.00002270  00000-0 -18260-3 0  9990,2 56494  70.0016  46.2583 0003136 268.2069  91.8730 14.98312999 53111,6950.245,96.108,574.29,569.931,0.0
56494.0,STARLINK-5530,PAYLOAD,2024-04-17 22:15:57,14.98312968,0.0003072,70.0014,46.09,270.5192,89.5615,-0.00017672,-2.2e-05,0.0,0 STARLINK-5530,1 56494U 23064AY  24108.92774362 -.00002200  00000-0 -17672-3 0  9990,2 56494  70.0014  46.0900 0003072 270.5192  89.5615 14.98312968 52764,6950.246,96.108,574.246,569.975,0.0
56494.0,STARLINK-5530,PAYLOAD,2024-04-18 04:40:29,14.98315104,0.0002936,70.0012,45.4173,260.6807,99.402,-0.00014103,-1.775e-05,0.0,0 STARLINK-5530,1 56494U 23064AY  24109.19478311 -.00001775  00000-0 -14103-3 0  9997,2 56494  70.0012  45.4173 0002936 260.6807  99.4020 14.98315104 52808,6950.239,96.108,574.145,570.063,0.0
56494.0,STARLINK-5530,PAYLOAD,2024-04-18 20:41:49,14.98328978,0.0003184,70.0005,43.7338,266.2669,93.8126,-0.00014147,-1.781e-05,0.0,0 STARLINK-5530,1 56494U 23064AY  24109.86237816 -.00001781  00000-0 -14147-3 0  9999,2 56494  70.0005  43.7338 0003184 266.2669  93.8126 14.98328978 53267,6950.196,96.107,574.274,569.848,0.0
56494.0,STARLINK-5530,PAYLOAD,2024-04-19 04:42:28,14.98340018,0.0002857,70.0019,42.8935,253.7832,106.3012,2.4785e-05,2.03e-06,0.0,0 STARLINK-5530,1 56494U 23064AY  24110.19616627  .00000203  00000-0  24785-4 0  9994,2 56494  70.0019  42.8935 0002857 253.7832 106.3012 14.98340018 53313,6950.162,96.106,574.013,570.041,0.0
56494.0,STARLINK-5530,PAYLOAD,2024-04-19 22:19:57,14.98327086,0.0002602,70.0039,41.0444,227.9682,132.1256,0.00031152,3.626e-05,0.0,0 STARLINK-5530,1 56494U 23064AY  24110.93052483  .00003626  00000-0  31152-3 0  9997,2 56494  70.0039  41.0444 0002602 227.9682 132.1256 14.98327086 53064,6950.202,96.107,573.875,570.258,0.0
56494.0,STARLINK-5530,PAYLOAD,2024-04-20 04:44:27,14.98352964,0.000279,70.0015,40.3678,265.8681,94.2159,0.00046443,5.456e-05,0.0,0 STARLINK-5530,1 56494U 23064AY  24111.19754477  .00005456  00000-0  46443-3 0  9990,2 56494  70.0015  40.3678 0002790 265.8681  94.2159 14.98352964 53464,6950.122,96.106,573.926,570.048,0.0
56494.0,STARLINK-5530,PAYLOAD,2024-04-20 20:45:52,14.98318617,0.0002696,70.0033,38.6882,262.0534,98.0319,-0.00020737,-2.566e-05,0.0,0 STARLINK-5530,1 56494U 23064AY  24111.86518660 -.00002566  00000-0 -20737-3 0  9995,2 56494  70.0033  38.6882 0002696 262.0534  98.0319 14.98318617 53560,6950.228,96.108,573.967,570.219,0.0
56494.0,STARLINK-5530,PAYLOAD,2024-04-21 04:46:33,14.9830734,0.000242,70.0029,37.8459,250.3632,109.7266,-0.00030672,-3.748e-05,0.0,0 STARLINK-5530,1 56494U 23064AY  24112.19899893 -.00003748  00000-0 -30672-3 0  9994,2 56494  70.0029  37.8459 0002420 250.3632 109.7266 14.98307340 53618,6950.263,96.108,573.81,570.446,0.0
56494.0,STARLINK-5530,PAYLOAD,2024-04-21 20:47:52,14.98340048,0.0002044,70.0039,36.1613,257.6034,102.4896,-7.3187e-05,-9.66e-06,0.0,0 STARLINK-5530,1 56494U 23064AY  24112.86657446 -.00000966  00000-0 -73187-4 0  9992,2 56494  70.0039  36.1613 0002044 257.6034 102.4896 14.98340048 53713,6950.162,96.106,573.447,570.606,0.0
56494.0,STARLINK-5530,PAYLOAD,2024-04-21 22:24:00,14.98339871,0.000202,70.004,35.9931,257.8739,102.2194,-5.5317e-05,-7.53e-06,0.0,0 STARLINK-5530,1 56494U 23064AY  24112.93333375 -.00000753  00000-0 -55317-4 0  9991,2 56494  70.0040  35.9931 0002020 257.8739 102.2194 14.98339871 53365,6950.162,96.106,573.431,570.623,0.0
56494.0,STARLINK-5530,PAYLOAD,2024-04-22 04:48:30,14.9835505,0.0002141,70.0031,35.32,268.9552,91.1362,7.4148e-05,7.92e-06,0.0,0 STARLINK-5530,1 56494U 23064AY  24113.20035876  .00000792  00000-0  74148-4 0  9991,2 56494  70.0031  35.3200 0002141 268.9552  91.1362 14.98355050 53762,6950.115,96.105,573.468,570.492,0.0
56494.0,STARLINK-5530,PAYLOAD,2024-04-22 20:49:52,14.98323695,0.0002679,70.003,33.6382,267.5136,92.5717,0.00033086,3.856e-05,0.0,0 STARLINK-5530,1 56494U 23064AY  24113.86796666  .00003856  00000-0  33086-3 0  9993,2 56494  70.0030  33.6382 0002679 267.5136  92.5717 14.98323695 53862,6950.212,96.107,573.939,570.215,0.0
56494.0,STARLINK-5530,PAYLOAD,2024-04-22 22:26:00,14.98324973,0.0002614,70.0029,33.4697,268.2206,91.8654,0.00033532,3.91e-05,0.0,0 STARLINK-5530,1 56494U 23064AY  24113.93472601  .00003910  00000-0  33532-3 0  9998,2 56494  70.0029  33.4697 0002614 268.2206  91.8654 14.98324973 53516,6950.208,96.107,573.89,570.257,0.0
56494.0,STARLINK-5530,PAYLOAD,2024-04-23 04:50:31,14.98337309,0.0002436,70.0025,32.7962,248.973,111.1169,0.00041106,4.816e-05,0.0,0 STARLINK-5530,1 56494U 23064AY  24114.20175437  .00004816  00000-0  41106-3 0  9998,2 56494  70.0025  32.7962 0002436 248.9730 111.1169 14.98337309 53916,6950.17,96.107,573.728,570.342,0.0
56494.0,STARLINK-5530,PAYLOAD,2024-04-23 20:51:54,14.98332453,0.0002439,70.0028,31.1138,265.6208,94.4672,-0.00025228,-3.102e-05,0.0,0 STARLINK-5530,1 56494U 23064AY  24114.86937690 -.00003102  00000-0 -25228-3 0  9993,2 56494  70.0028  31.1138 0002439 265.6208  94.4672 14.98332453 54015,6950.185,96.107,573.745,570.355,0.0
56494.0,STARLINK-5530,PAYLOAD,2024-04-23 22:28:02,14.98332551,0.000251,70.0021,30.9444,266.8638,93.2234,-0.0002604,-3.199e-05,0.0,0 STARLINK-5530,1 56494U 23064AY  24114.93613648 -.00003199  00000-0 -26040-3 0  9994,2 56494  70.0021  30.9444 0002510 266.8638  93.2234 14.98332551 53665,6950.185,96.107,573.794,570.306,0.0
56494.0,STARLINK-5530,PAYLOAD,2024-04-24 04:52:34,14.9833298,0.0002279,70.0024,30.2698,257.6889,102.4015,-0.00021546,-2.663e-05,0.0,0 STARLINK-5530,1 56494U 23064AY  24115.20317343 -.00002663  00000-0 -21546-3 0  9999,2 56494  70.0024  30.2698 0002279 257.6889 102.4015 14.98332980 53701,6950.184,96.107,573.633,570.465,0.0
56494.0,STARLINK-5530,PAYLOAD,2024-04-24 20:53:54,14.98336124,0.0002459,70.0016,28.5866,241.3638,118.7273,-0.00018209,-2.265e-05,0.0,0 STARLINK-5530,1 56494U 23064AY  24115.87076852 -.00002265  00000-0 -18209-3 0  9999,2 56494  70.0016  28.5866 0002459 241.3638 118.7273 14.98336124 54162,6950.174,96.107,573.748,570.33,0.0
